2022-033AD              
1 52184U 22033AD  22097.84685223  .00008129  00000+0  37230-3 0  9995
2 52184  97.3869 180.5767 0008735 258.2075 101.8181 15.20713375   947
2022-033AE              
1 52185U 22033AE  22097.84677941  .00014930  00000+0  67938-3 0  9999
2 52185  97.3843 180.5736 0007981 275.3549  84.6776 15.20778716   942
2022-033AF              
1 52186U 22033AF  22097.84680279  .00016728  00000+0  76062-3 0  9993
2 52186  97.3843 180.5729 0008617 261.2079  98.8181 15.20775398   944
2022-033AG              
1 52187U 22033AG  22097.84676567  .00016368  00000+0  74396-3 0  9997
2 52187  97.3848 180.5740 0008077 258.4146 101.6183 15.20797309   947
2022-034A               
1 52195U 22034A   22098.31393130  .00141269  00000+0  28672-2 0  9996
2 52195  53.0029 315.1650 0009688 318.4771  41.5481 15.45333534   892
2022-034B               
1 52196U 22034B   22098.89813843  .00021087  00000+0  45937-3 0  9997
2 52196  53.0056 312.4024 0008717 312.2749  47.7515 15.44217003   984
2022-034C               
1 52197U 22034C   22098.31365112  .00021169  00000+0  45301-3 0  9992
2 52197  53.0042 315.1641 0010178 299.3143  60.6790 15.44728264   897
ELECTRON KICK STAGE R/B 
1 52199U 22034E   22098.20288751  .02611660  11284-4  97345-3 0  9994
2 52199  53.0288 313.9124 0142407 264.4769  94.0283 16.03859364   891
2022-035A               
1 52200U 22035A   22098.83798922 -.00000044  00000+0  00000+0 0  9997
2 52200  98.4189 107.7003 0005456 217.0004 142.9450 14.44808197   261
2022-035B               
1 52201U 22035B   22098.80657576 -.00000060  00000+0  00000+0 0  9992
2 52201  98.4001 107.7193 0112576  45.4370 315.5960 14.70537371   262
COSMOS 2554             
1 52202U 22036A   22099.09268588 -.00001391  43993-5  00000+0 0  9999
2 52202  67.1438 347.6769 0470986  90.9312  65.7550 14.98346379   240
SL-4 R/B                
1 52203U 22036B   22099.08386067  .00148142  85352-5  78884-3 0  9991
2 52203  67.1362 347.6595 0454946  91.2351  49.3731 15.04413156   233
2022-037A               
1 52204U 22037A   22098.77454050 -.00003711  11735-4  00000+0 0  9993
2 52204  51.6440 320.5959 0033840 227.9694 228.5275 16.16293702    14
